ONEWEB-0202             
1 48224U 21031Q   23229.30617896 -.00000113  00000+0 -33978-3 0  9994
2 48224  87.9044 135.7174 0003016  87.4200 272.7275 13.14502946112419
ONEWEB-0204             
1 48225U 21031R   23229.26401884  .00000281  00000+0  72438-3 0  9996
2 48225  87.9042 135.7381 0001515  62.9495 297.1789 13.14505647112304
ONEWEB-0205             
1 48226U 21031S   23230.00180159 -.00000165  00000+0 -47913-3 0  9993
2 48226  87.9043 135.5606 0002263  76.6660 283.4722 13.14500629112413
ONEWEB-0206             
1 48227U 21031T   23229.66983330  .00000056  00000+0  11736-3 0  9997
2 48227  87.9047 135.6104 0002089  71.2919 288.8437 13.14503806112328
ONEWEB-0182             
1 48228U 21031U   23229.28292654  .00000565  00000+0  14885-2 0  9990
2 48228  87.8907 135.7620 0002132  68.0051 292.1305 13.14497030112487
ONEWEB-0186             
1 48229U 21031V   23229.67619759  .00000005  00000+0 -21532-4 0  9992
2 48229  87.9045 135.5991 0002132  77.0304 283.1063 13.14501351112485
ONEWEB-0181             
1 48230U 21031W   23230.03352205  .00000262  00000+0  67273-3 0  9991
2 48230  87.9047 135.5996 0002090  80.5960 279.5406 13.14500837112381
ONEWEB-0188             
1 48231U 21031X   23230.22593649 -.00000166  00000+0 -48229-3 0  9997
2 48231  87.9046 135.5609 0002063  74.3951 285.7406 13.14501199112306
